[Satellite]
VERSION=1.1
NAME=POPACS 2
NICKNAME=POPACS 2
TLE1=1 39269U 13055E   19317.12502438  .00001958  00000-0  56710-4 0  9995
TLE2=2 39269  81.0160 198.6734 0680584 232.5690 121.1695 14.24597356316251
STATUS=0
